$$SOE
2460721.500000000, A.D. 2025-Feb-15 00:00:00.0000, -2.533701379403105E+08, -3.854979387423345E+08, 7.788435224335866E+07,
2460728.500000000, A.D. 2025-Feb-22 00:00:00.0000, -2.451270556862278E+08, -3.911278436910637E+08, 7.861902831674908E+07,
2460735.500000000, A.D. 2025-Mar-01 00:00:00.0000, -2.367680582212423E+08, -3.965728662604870E+08, 7.931652805338305E+07,
2460742.500000000, A.D. 2025-Mar-08 00:00:00.0000, -2.282973787020209E+08, -4.018309063230882E+08, 7.997661628637451E+07,
2460749.500000000, A.D. 2025-Mar-15 00:00:00.0000, -2.197192752531893E+08, -4.068999516210898E+08, 8.059907484954694E+07,
2460756.500000000, A.D. 2025-Mar-22 00:00:00.0000, -2.110380314767597E+08, -4.117780770898661E+08, 8.118370271703920E+07,
2460763.500000000, A.D. 2025-Mar-29 00:00:00.0000, -2.022579556280716E+08, -4.164634464183151E+08, 8.173031583195360E+07,
2460770.500000000, A.D. 2025-Apr-05 00:00:00.0000, -1.933833781330908E+08, -4.209543127107686E+08, 8.223874685125439E+07,
2460777.500000000, A.D. 2025-Apr-12 00:00:00.0000, -1.844186493731290E+08, -4.252490181480886E+08, 8.270884499240962E+07,
2460784.500000000, A.D. 2025-Apr-19 00:00:00.0000, -1.753681379239897E+08, -4.293459935301147E+08, 8.314047592698288E+07,
2460791.500000000, A.D. 2025-Apr-26 00:00:00.0000, -1.662362289774530E+08, -4.332437579028366E+08, 8.353352167950706E+07,
2460798.500000000, A.D. 2025-May-03 00:00:00.0000, -1.570273228306745E+08, -4.369409182511360E+08, 8.388788052244629E+07,
2460805.500000000, A.D. 2025-May-10 00:00:00.0000, -1.477458334137678E+08, -4.404361692483646E+08, 8.420346686490615E+07,
2460812.500000000, A.D. 2025-May-17 00:00:00.0000, -1.383961868172681E+08, -4.437282931039302E+08, 8.448021112796162E+07,
2460819.500000000, A.D. 2025-May-24 00:00:00.0000, -1.289828196437050E+08, -4.468161595641356E+08, 8.471805958598699E+07,
2460826.500000000, A.D. 2025-May-31 00:00:00.0000, -1.195101767638983E+08, -4.496987257568721E+08, 8.491697416122977E+07,
2460833.500000000, A.D. 2025-Jun-07 00:00:00.0000, -1.099827088779792E+08, -4.523750346771353E+08, 8.507693230726539E+07,
2460840.500000000, A.D. 2025-Jun-14 00:00:00.0000, -1.004048722449879E+08, -4.548442129811426E+08, 8.519792714394967E+07,
2460847.500000000, A.D. 2025-Jun-21 00:00:00.0000, -9.078112936306539E+07, -4.571054713611055E+08, 8.527996746501029E+07,
2460854.500000000, A.D. 2025-Jun-28 00:00:00.0000, -8.111594747087272E+07, -4.591581057375463E+08, 8.532307747598891E+07,
2460861.500000000, A.D. 2025-Jul-05 00:00:00.0000, -7.141379638623066E+07, -4.610014971141104E+08, 8.532729657842173E+07,
2460868.500000000, A.D. 2025-Jul-12 00:00:00.0000, -6.167914687219010E+07, -4.626351109008924E+08, 8.529267924401265E+07,
2460875.500000000, A.D. 2025-Jul-19 00:00:00.0000, -5.191646934003386E+07, -4.640584962817534E+08, 8.521929491461179E+07,
2460882.500000000, A.D. 2025-Jul-26 00:00:00.0000, -4.213023267826971E+07, -4.652712856824770E+08, 8.510722790422192E+07,
2460889.500000000, A.D. 2025-Aug-02 00:00:00.0000, -3.232490314104458E+07, -4.662731943183650E+08, 8.495657729886669E+07,
2460896.500000000, A.D. 2025-Aug-09 00:00:00.0000, -2.250494327125208E+07, -4.670640198363114E+08, 8.476745685114592E+07,
2460903.500000000, A.D. 2025-Aug-16 00:00:00.0000, -1.267481078019841E+07, -4.676436421151755E+08, 8.453999485759857E+07,
2460910.500000000, A.D. 2025-Aug-23 00:00:00.0000, -2.838957090251212E+06, -4.680120232085629E+08, 8.427433399381185E+07,
2460917.500000000, A.D. 2025-Aug-30 00:00:00.0000, 6.998174789227298E+06, -4.681692067164010E+08, 8.397063113585149E+07,
2460924.500000000, A.D. 2025-Sep-06 00:00:00.0000, 1.683215163518569E+07, -4.681153155849441E+08, 8.362905738002826E+07,
2460931.500000000, A.D. 2025-Sep-13 00:00:00.0000, 2.665854896370018E+07, -4.678505508172097E+08, 8.324979821119715E+07,
2460938.500000000, A.D. 2025-Sep-20 00:00:00.0000, 3.647295083732156E+07, -4.673751927378012E+08, 8.283305338493487E+07,
2460945.500000000, A.D. 2025-Sep-27 00:00:00.0000, 4.627095158712175E+07, -4.666896017013001E+08, 8.237903668120994E+07,
2460952.500000000, A.D. 2025-Oct-04 00:00:00.0000, 5.604815743376122E+07, -4.657942177056378E+08, 8.188797575900596E+07,
2460959.500000000, A.D. 2025-Oct-11 00:00:00.0000, 6.580018763480688E+07, -4.646895598534862E+08, 8.136011206926627E+07,
2460966.500000000, A.D. 2025-Oct-18 00:00:00.0000, 7.552267544288342E+07, -4.633762259358031E+08, 8.079570077770521E+07,
2460973.500000000, A.D. 2025-Oct-25 00:00:00.0000, 8.521126901512218E+07, -4.618548921259871E+08, 8.019501068541074E+07,
2460980.500000000, A.D. 2025-Nov-01 00:00:00.0000, 9.486163231443441E+07, -4.601263127683786E+08, 7.955832414456771E+07,
2460987.500000000, A.D. 2025-Nov-08 00:00:00.0000, 1.044694460385455E+08, -4.581913202917929E+08, 7.888593696324836E+07,
2460994.500000000, A.D. 2025-Nov-15 00:00:00.0000, 1.140304087261829E+08, -4.560508253063055E+08, 7.817815828077854E+07,
2461001.500000000, A.D. 2025-Nov-22 00:00:00.0000, 1.235402384444488E+08, -4.537058166632929E+08, 7.743531039476334E+07,
2461008.500000000, A.D. 2025-Nov-29 00:00:00.0000, 1.329946749050810E+08, -4.511573603439418E+08, 7.665772864662173E+07,
2461015.500000000, A.D. 2025-Dec-06 00:00:00.0000, 1.423894797326694E+08, -4.484065973118224E+08, 7.584576156317481E+07,
2461022.500000000, A.D. 2025-Dec-13 00:00:00.0000, 1.517204353192550E+08, -4.454547436984853E+08, 7.499977093853976E+07,
2461029.500000000, A.D. 2025-Dec-20 00:00:00.0000, 1.609833457600343E+08, -4.423030922981320E+08, 7.412013161930464E+07,
2461036.500000000, A.D. 2025-Dec-27 00:00:00.0000, 1.701740387976198E+08, -4.389530127802582E+08, 7.320723130342744E+07,
2461043.500000000, A.D. 2026-Jan-03 00:00:00.0000, 1.792883673160115E+08, -4.354059512355647E+08, 7.226147043646181E+07,
2461050.500000000, A.D. 2026-Jan-10 00:00:00.0000, 1.883222104939867E+08, -4.316634297327070E+08, 7.128326213930100E+07,
2461057.500000000, A.D. 2026-Jan-17 00:00:00.0000, 1.972714748504644E+08, -4.277270459751656E+08, 7.027303213809983E+07,
2461064.500000000, A.D. 2026-Jan-24 00:00:00.0000, 2.061320952602977E+08, -4.235984730326518E+08, 6.923121869043289E+07,
2461071.500000000, A.D. 2026-Jan-31 00:00:00.0000, 2.149000359653439E+08, -4.192794591515098E+08, 6.815827250441329E+07,
2461078.500000000, A.D. 2026-Feb-07 00:00:00.0000, 2.235712916445867E+08, -4.147718276992569E+08, 6.705465664034298E+07,
2461085.500000000, A.D. 2026-Feb-14 00:00:00.0000, 2.321418887989399E+08, -4.100774772576865E+08, 6.592084637087275E+07,
2461092.500000000, A.D. 2026-Feb-21 00:00:00.0000, 2.406078878403134E+08, -4.051983812878974E+08, 6.475732901207137E+07,
2461099.500000000, A.D. 2026-Feb-28 00:00:00.0000, 2.489653848008666E+08, -4.001365862145537E+08, 6.356460391979559E+07,
2461106.500000000, A.D. 2026-Mar-07 00:00:00.0000, 2.572105106034579E+08, -3.948942098789670E+08, 6.234318268075569E+07,
2461113.500000000, A.D. 2026-Mar-14 00:00:00.0000, 2.653394306687223E+08, -3.894734426917623E+08, 6.109358905247678E+07,
2461120.500000000, A.D. 2026-Mar-21 00:00:00.0000, 2.733483466425828E+08, -3.838765485855067E+08, 5.981635872517109E+07,
2461127.500000000, A.D. 2026-Mar-28 00:00:00.0000, 2.812334982359080E+08, -3.781058647379138E+08, 5.851203917390725E+07,
2461134.500000000, A.D. 2026-Apr-04 00:00:00.0000, 2.889911645733438E+08, -3.721638010304718E+08, 5.718118957752399E+07,
2461141.500000000, A.D. 2026-Apr-11 00:00:00.0000, 2.966176653259177E+08, -3.660528396014535E+08, 5.582438074970981E+07,
2461148.500000000, A.D. 2026-Apr-18 00:00:00.0000, 3.041093617874489E+08, -3.597755344989805E+08, 5.444219506706265E+07,
2461155.500000000, A.D. 2026-Apr-25 00:00:00.0000, 3.114626579413224E+08, -3.533345114184074E+08, 5.303522639107801E+07,
2461162.500000000, A.D. 2026-May-02 00:00:00.0000, 3.186740015489048E+08, -3.467324675523699E+08, 5.160407997866340E+07,
2461169.500000000, A.D. 2026-May-09 00:00:00.0000, 3.257398853848757E+08, -3.399721716180018E+08, 5.014937236407371E+07,
2461176.500000000, A.D. 2026-May-16 00:00:00.0000, 3.326568489986766E+08, -3.330564639211702E+08, 4.867173118875070E+07,
2461183.500000000, A.D. 2026-May-23 00:00:00.0000, 3.394214810556963E+08, -3.259882554344120E+08, 4.717179505800638E+07,
2461190.500000000, A.D. 2026-May-30 00:00:00.0000, 3.460304201808702E+08, -3.187705255689508E+08, 4.565021364140539E+07,
2461197.500000000, A.D. 2026-Jun-06 00:00:00.0000, 3.524803539869747E+08, -3.114063219133481E+08, 4.410764777794616E+07,
2461204.500000000, A.D. 2026-Jun-13 00:00:00.0000, 3.587680199532107E+08, -3.038987617373553E+08, 4.254476926530215E+07,
2461211.500000000, A.D. 2026-Jun-20 00:00:00.0000, 3.648902076538854E+08, -2.962510323328876E+08, 4.096226061775458E+07,
2461218.500000000, A.D. 2026-Jun-27 00:00:00.0000, 3.708437606397521E+08, -2.884663905308381E+08, 3.936081492048246E+07,
2461225.500000000, A.D. 2026-Jul-04 00:00:00.0000, 3.766255779724228E+08, -2.805481621674097E+08, 3.774113571644709E+07,
2461232.500000000, A.D. 2026-Jul-11 00:00:00.0000, 3.822326156661647E+08, -2.724997416304921E+08, 3.610393689130186E+07,
2461239.500000000, A.D. 2026-Jul-18 00:00:00.0000, 3.876618881301475E+08, -2.643245914589576E+08, 3.444994254942928E+07,
2461246.500000000, A.D. 2026-Jul-25 00:00:00.0000, 3.929104696357672E+08, -2.560262419908584E+08, 3.277988687859300E+07,
2461253.500000000, A.D. 2026-Aug-01 00:00:00.0000, 3.979754958568698E+08, -2.476082911072623E+08, 3.109451399429837E+07,
2461260.500000000, A.D. 2026-Aug-08 00:00:00.0000, 4.028541656970196E+08, -2.390744041056695E+08, 2.939457774057909E+07,
2461267.500000000, A.D. 2026-Aug-15 00:00:00.0000, 4.075437438185362E+08, -2.304283132500911E+08, 2.768084144545352E+07,
2461274.500000000, A.D. 2026-Aug-22 00:00:00.0000, 4.120415631131009E+08, -2.216738157746889E+08, 2.595407780056309E+07,
2461281.500000000, A.D. 2026-Aug-29 00:00:00.0000, 4.163450248252067E+08, -2.128147717132486E+08, 2.421506896267322E+07,
2461288.500000000, A.D. 2026-Sep-05 00:00:00.0000, 4.204515984601714E+08, -2.038551044212305E+08, 2.246460644638290E+07,
$$EOE